[{"OBJECT_NAME":"SENTINEL-2A","OBJECT_ID":"2015-028A","EPOCH":"2026-02-25T04:19:12.423360","MEAN_MOTION":14.30192923,"ECCENTRICITY":0.00543683,"INCLINATION":98.5024,"RA_OF_ASC_NODE":132.8928,"ARG_OF_PERICENTER":194.7437,"MEAN_ANOMALY":165.2162,"EPHEMERIS_TYPE":0,"CLASSIFICATION_TYPE":"U","NORAD_CAT_ID":40697,"ELEMENT_SET_NO":999,"REV_AT_EPOCH":55771,"BSTAR":7.6852184e-5,"MEAN_MOTION_DOT":1.59e-6,"MEAN_MOTION_DDOT":0},{"OBJECT_NAME":"NOAA 16 DEB","OBJECT_ID":"2000-055FY","EPOCH":"2026-03-09T23:06:25.383456","MEAN_MOTION":14.2563163,"ECCENTRICITY":0.00260038,"INCLINATION":98.7428,"RA_OF_ASC_NODE":137.7568,"ARG_OF_PERICENTER":59.7199,"MEAN_ANOMALY":300.6549,"EPHEMERIS_TYPE":0,"CLASSIFICATION_TYPE":"U","NORAD_CAT_ID":41272,"ELEMENT_SET_NO":999,"REV_AT_EPOCH":52620,"BSTAR":0.0020467235,"MEAN_MOTION_DOT":4.825e-5,"MEAN_MOTION_DDOT":0}]
